STARLINK-4191           
1 52860U 22062AG  26068.28734507 -.00000960  00000+0 -42247-4 0  9990
2 52860  53.2185  25.9245 0001505 107.4348 252.6809 15.08839224205867
LEMUR-2-UNTITLED-SC     
1 63351U 25061A   26068.89211098  .00005783  00000+0  33296-3 0  9990
2 63351  97.5556  45.0864 0017373 245.6030 114.3388 15.12695529 52577
